IRIDIUM 921 [-]         
1 24873U 97034E   23299.36366321  .00020031  00000+0  75673-3 0  9998
2 24873  86.3900  43.0371 0006578  71.7078 288.4884 15.26863001439220
IRIDIUM 26 [-]          
1 24903U 97043A   23299.60558246  .00000481  00000+0  15866-3 0  9993
2 24903  86.4007   2.1839 0001967  91.8128 268.3294 14.36054516370661
IRIDIUM 22 [-]          
1 24907U 97043E   23299.55087715  .00000468  00000+0  15774-3 0  9992
2 24907  86.4013   5.2555 0002209  91.9694 268.1756 14.34961763370750
DUMMY MASS 1 [-]        
1 24925U 97048A   23299.39060649  .00000683  00000+0  75171-4 0  9993
2 24925  86.3365  52.4226 0009107 106.0193 254.2035 14.85892670416038
DUMMY MASS 2 [-]        
1 24926U 97048B   23299.38928862  .00000684  00000+0  75734-4 0  9999
2 24926  86.3363  53.9252 0009764 114.8950 245.3290 14.85653747415829
IRIDIUM 29 [-]          
1 24944U 97051A   23299.34921822  .00000423  00000+0  14051-3 0  9993
2 24944  86.4003  35.3035 0002345  89.4346 270.7120 14.35417668367193
IRIDIUM 33 [-]          
1 24946U 97051C   23299.37207065  .00000417  00000+0  14206-3 0  9999
2 24946  86.3919  34.5684 0006343 223.9283 136.1409 14.34155825366757
IRIDIUM 28 [-]          
1 24948U 97051E   23299.36842497  .00000572  00000+0  18884-3 0  9992
2 24948  86.4010  33.1569 0001746  97.9614 262.1781 14.36356936367716
